      2.10          N: GNSS NAV DATA                        RINEX VERSION / TYPE
fic2rin                                 01/31/2019 00:19:41 PGM / RUN BY / DATE
                                                            END OF HEADER
16 19  1 30 14  0  0.0-1.599080860615e-05-2.387423592154e-12 0.000000000000e+00
    2.900000000000e+01 8.800000000000e+01 3.904805507966e-09-3.061788842675e+00
    4.447996616364e-06 1.051914808340e-02 5.420297384262e-06 5.153770668030e+03
    3.096000000000e+05-8.568167686462e-08-2.865188932174e+00-1.080334186554e-07
    9.847874929462e-01 2.890625000000e+02 5.323127607574e-01-7.816039855147e-09
    1.428630936784e-10 1.000000000000e+00 2.038000000000e+03 0.000000000000e+00
    2.400000000000e+00 0.000000000000e+00-1.071020960808e-08 2.900000000000e+01
    3.024060000000e+05 4.000000000000e+00
24 19  1 30 14  0  0.0-6.149662658572e-05-5.684341886081e-13 0.000000000000e+00
    1.700000000000e+01 4.775000000000e+01 4.958063666110e-09 4.635886612771e-01
    2.603977918625e-06 8.134968229569e-03 9.408220648766e-06 5.153733940125e+03
    3.096000000000e+05 9.313225746155e-09 2.237821935455e+00 1.322478055954e-07
    9.393624587769e-01 1.840000000000e+02 5.864442319162e-01-8.248915028993e-09
   -4.160887603384e-10 1.000000000000e+00 2.038000000000e+03 0.000000000000e+00
    2.400000000000e+00 0.000000000000e+00 2.793967723846e-09 1.700000000000e+01
    3.024060000000e+05 4.000000000000e+00
30 19  1 30 14  0  0.0-4.436634480953e-05-6.252776074689e-12 0.000000000000e+00
    3.300000000000e+01 4.087500000000e+01 4.748412076137e-09-4.682702741594e-01
    1.989305019379e-06 3.615223686211e-03 9.370967745781e-06 5.153637300491e+03
    3.096000000000e+05 8.940696716309e-08 2.331709336253e+00 7.450580596924e-09
    9.418036857667e-01 1.892812500000e+02-3.017613046919e+00-8.118195298277e-09
   -3.689439394246e-10 1.000000000000e+00 2.038000000000e+03 0.000000000000e+00
    2.400000000000e+00 0.000000000000e+00 3.725290298462e-09 3.300000000000e+01
    3.024060000000e+05 4.000000000000e+00
23 19  1 30 14  0  0.0-1.988862641156e-04 1.250555214938e-12 0.000000000000e+00
    3.900000000000e+01-9.875000000000e+00 5.402010729716e-09 9.145353901613e-01
   -2.682209014893e-07 1.273155387025e-02 6.739050149918e-06 5.153643411636e+03
    3.096000000000e+05-1.117587089539e-07 1.220841048861e+00 9.313225746155e-08
    9.430202264976e-01 2.445000000000e+02-2.303199457685e+00-8.578571617656e-09
   -3.221562762449e-10 1.000000000000e+00 2.038000000000e+03 0.000000000000e+00
    2.400000000000e+00 0.000000000000e+00-2.002343535423e-08 3.900000000000e+01
    3.024060000000e+05 4.000000000000e+00
15 19  1 30 14  0  0.0-3.300542011857e-04 1.591615728103e-12 0.000000000000e+00
    3.300000000000e+01-7.687500000000e+00 5.740953419468e-09 1.435496945295e+00
   -2.682209014893e-07 1.121453894302e-02 6.927177309990e-06 5.153623287201e+03
    3.096000000000e+05-1.937150955200e-07 1.147766937603e+00 1.639127731323e-07
    9.277645407971e-01 2.327500000000e+02 7.601099654482e-01-8.626787911772e-09
   -2.550106222160e-10 1.000000000000e+00 2.038000000000e+03 0.000000000000e+00
    2.400000000000e+00 0.000000000000e+00-1.071020960808e-08 3.300000000000e+01
    3.024060000000e+05 4.000000000000e+00
11 19  1 30 14  0  0.0-6.678686477244e-04 5.570655048359e-12 0.000000000000e+00
    2.100000000000e+01-8.640625000000e+01 5.731310160645e-09-5.398513268375e-01
   -4.639849066734e-06 1.657196122687e-02 6.092712283134e-06 5.153685417175e+03
    3.096000000000e+05-2.458691596985e-07-1.293350807287e+00-9.313225746155e-09
    9.080757217759e-01 2.371875000000e+02 1.858826466761e+00-9.003232163615e-09
    9.928985010651e-11 1.000000000000e+00 2.038000000000e+03 0.000000000000e+00
    2.400000000000e+00 0.000000000000e+00-1.210719347000e-08 2.100000000000e+01
    3.024060000000e+05 4.000000000000e+00
 7 19  1 30 14  0  0.0 4.199659451842e-05-7.162270776462e-12 0.000000000000e+00
    3.400000000000e+01 4.068750000000e+01 4.558404161545e-09-4.774316406356e-01
    2.080574631691e-06 1.217604905833e-02 9.350478649139e-06 5.153617187500e+03
    3.096000000000e+05 6.705522537231e-08 2.301781958823e+00 1.993030309677e-07
    9.562822064780e-01 1.969375000000e+02-2.478188364047e+00-8.154268229431e-09
   -3.960879272235e-10 1.000000000000e+00 2.038000000000e+03 0.000000000000e+00
    2.400000000000e+00 0.000000000000e+00-1.117587089539e-08 3.400000000000e+01
    3.024060000000e+05 4.000000000000e+00
 9 19  1 30 14  0  0.0 4.652240313590e-04-4.888534022029e-12 0.000000000000e+00
    3.000000000000e+01-1.162500000000e+01 5.064139513166e-09 2.710052059678e+00
   -4.861503839493e-07 1.479021157138e-03 6.642192602158e-06 5.153739233017e+03
    3.096000000000e+05 4.656612873077e-08 1.224835349183e+00-8.009374141693e-08
    9.522049250543e-01 2.444062500000e+02 1.700419890434e+00-8.251772290866e-09
   -2.178662178596e-10 1.000000000000e+00 2.038000000000e+03 0.000000000000e+00
    2.400000000000e+00 0.000000000000e+00 1.396983861923e-09 3.000000000000e+01
    3.024060000000e+05 4.000000000000e+00
 6 19  1 30 14  0  0.0 2.863276749849e-04-7.958078640513e-12 0.000000000000e+00
    3.300000000000e+01-6.893750000000e+01 4.066955119291e-09 4.014425480706e-01
   -3.628432750702e-06 1.413584221154e-03 9.022653102875e-06 5.153788286209e+03
    3.096000000000e+05-2.421438694000e-08-8.582863289907e-01-3.911554813385e-08
    9.739367135620e-01 2.084687500000e+02-1.192928406599e+00-7.839255107870e-09
    1.300054152474e-10 1.000000000000e+00 2.038000000000e+03 0.000000000000e+00
    2.400000000000e+00 0.000000000000e+00 4.656612873077e-09 3.300000000000e+01
    3.024060000000e+05 4.000000000000e+00
 5 19  1 30 14  0  0.0 9.671784937382e-07 1.136868377216e-13 0.000000000000e+00
    1.210000000000e+02-2.687500000000e+00 4.996993859137e-09 3.077982530967e+00
   -1.918524503708e-07 5.551939830184e-03 7.940456271172e-06 5.153614725113e+03
    3.096000000000e+05-3.539025783539e-08 1.670629376305e-01-8.195638656616e-08
    9.495141359436e-01 2.221250000000e+02 7.190852835313e-01-8.062835849477e-09
    3.943021385525e-10 1.000000000000e+00 2.038000000000e+03 0.000000000000e+00
    3.400000000000e+00 0.000000000000e+00-1.117587089539e-08 1.210000000000e+02
    3.024060000000e+05 4.000000000000e+00
19 19  1 30 14  0  0.0-3.578630276024e-04 4.092726157978e-12 0.000000000000e+00
    3.300000000000e+01-4.918750000000e+01 4.105170996850e-09-1.200849180508e+00
   -2.216547727585e-06 9.385467856191e-03 4.271045327187e-06 5.153618944168e+03
    3.096000000000e+05-4.097819328308e-08-1.804140722274e+00 2.067536115646e-07
    9.813226021967e-01 3.065625000000e+02 1.339310732582e+00-8.100337411567e-09
   -3.321566928024e-11 1.000000000000e+00 2.038000000000e+03 0.000000000000e+00
    2.400000000000e+00 0.000000000000e+00-1.536682248116e-08 3.300000000000e+01
    3.024060000000e+05 4.000000000000e+00
10 19  1 30 14  0  0.0 1.263539306819e-04-7.048583938740e-12 0.000000000000e+00
    1.020000000000e+02-9.531250000000e+00 4.629478550650e-09-1.867205327134e+00
   -6.128102540970e-07 4.282407695428e-03 8.180737495422e-06 5.153660110474e+03
    3.096000000000e+05 6.332993507385e-08 1.889906840149e-01-4.842877388000e-08
    9.626768657098e-01 2.223125000000e+02-2.770514125960e+00-7.941402219850e-09
    4.728768400756e-10 1.000000000000e+00 2.038000000000e+03 0.000000000000e+00
    2.400000000000e+00 0.000000000000e+00 1.862645149231e-09 1.020000000000e+02
    3.024060000000e+05 4.000000000000e+00
21 19  1 30 14  0  0.0-2.595707774162e-04 7.048583938740e-12 0.000000000000e+00
    3.800000000000e+01-7.346875000000e+01 4.647336437359e-09-1.576249757701e+00
   -3.265216946602e-06 2.479135268368e-02 9.384006261826e-06 5.153544849396e+03
    3.096000000000e+05-5.587935447693e-09-9.110669284288e-01 6.854534149170e-07
    9.470252895074e-01 1.887500000000e+02-1.487008894861e+00-8.078907947515e-09
    1.507205638307e-10 1.000000000000e+00 2.038000000000e+03 0.000000000000e+00
    2.400000000000e+00 0.000000000000e+00-1.024454832077e-08 3.800000000000e+01
    3.024060000000e+05 4.000000000000e+00
32 19  1 30 14  0  0.0-2.508782781661e-04 1.796252036002e-11 0.000000000000e+00
    2.200000000000e+01-8.156250000000e+00 4.914490422538e-09 3.093079242823e+00
   -4.284083843231e-07 2.508815377951e-03 6.990507245064e-06 5.153743078232e+03
    3.096000000000e+05-3.725290298462e-09 1.230988897572e+00-5.587935447693e-08
    9.564992888918e-01 2.417187500000e+02-2.627117339285e+00-8.076765001110e-09
   -2.417957860507e-10 1.000000000000e+00 2.038000000000e+03 0.000000000000e+00
    2.400000000000e+00 0.000000000000e+00 4.656612873077e-10 2.200000000000e+01
    3.024060000000e+05 4.000000000000e+00
18 19  1 30 14  0  0.0 2.094730734825e-05 3.751665644813e-12 0.000000000000e+00
    4.100000000000e+01-7.884375000000e+01 4.666980112740e-09-6.403804810460e-02
   -4.263594746590e-06 1.501330849715e-02 8.391216397285e-06 5.153741458893e+03
    3.096000000000e+05-1.750886440277e-07-9.025776309069e-01 1.229345798492e-07
    9.527260603617e-01 2.188125000000e+02 1.373339310146e+00-8.352847929644e-09
    1.185763677531e-10 1.000000000000e+00 2.038000000000e+03 0.000000000000e+00
    2.400000000000e+00 0.000000000000e+00-6.053596735001e-09 4.100000000000e+01
    3.024060000000e+05 4.000000000000e+00
31 19  1 30 14  0  0.0 6.214436143637e-05-2.614797267597e-12 0.000000000000e+00
    2.800000000000e+01 4.962500000000e+01 4.372682139763e-09-8.779356506867e-01
    2.507120370865e-06 9.278497076593e-03 1.004151999950e-05 5.153558059692e+03
    3.096000000000e+05 8.381903171539e-08 2.315349738422e+00-1.713633537292e-07
    9.608755029958e-01 1.859687500000e+02-2.416435648530e-02-7.926044437279e-09
   -2.807259790781e-10 1.000000000000e+00 2.038000000000e+03 0.000000000000e+00
    2.400000000000e+00 0.000000000000e+00-1.350417733192e-08 2.800000000000e+01
    3.024060000000e+05 4.000000000000e+00
